[{"OBJECT_NAME":"STARLINK-36105","OBJECT_ID":"2025-281C","EPOCH":"2025-12-13T02:09:07.195104","MEAN_MOTION":15.90809005,"ECCENTRICITY":0.00041873,"INCLINATION":43.0008,"RA_OF_ASC_NODE":120.2126,"ARG_OF_PERICENTER":348.4545,"MEAN_ANOMALY":11.6233,"EPHEMERIS_TYPE":0,"CLASSIFICATION_TYPE":"U","NORAD_CAT_ID":66850,"ELEMENT_SET_NO":999,"REV_AT_EPOCH":285,"BSTAR":0.0021491117,"MEAN_MOTION_DOT":0.00692488,"MEAN_MOTION_DDOT":0.00019716173},{"OBJECT_NAME":"STARLINK-36094","OBJECT_ID":"2025-281D","EPOCH":"2025-12-13T06:39:52.277760","MEAN_MOTION":15.89964839,"ECCENTRICITY":0.00031097,"INCLINATION":43.0005,"RA_OF_ASC_NODE":119.0405,"ARG_OF_PERICENTER":249.6994,"MEAN_ANOMALY":110.3547,"EPHEMERIS_TYPE":0,"CLASSIFICATION_TYPE":"U","NORAD_CAT_ID":66851,"ELEMENT_SET_NO":999,"REV_AT_EPOCH":288,"BSTAR":0.0006554398,"MEAN_MOTION_DOT":0.00207646,"MEAN_MOTION_DDOT":0},{"OBJECT_NAME":"STARLINK-35992","OBJECT_ID":"2025-281E","EPOCH":"2025-12-13T02:07:57.775296","MEAN_MOTION":15.90839104,"ECCENTRICITY":0.00039844,"INCLINATION":43.0008,"RA_OF_ASC_NODE":120.2059,"ARG_OF_PERICENTER":346.7655,"MEAN_ANOMALY":13.3115,"EPHEMERIS_TYPE":0,"CLASSIFICATION_TYPE":"U","NORAD_CAT_ID":66852,"ELEMENT_SET_NO":999,"REV_AT_EPOCH":285,"BSTAR":0.0018498566,"MEAN_MOTION_DOT":0.00596999,"MEAN_MOTION_DDOT":0.00014608553},{"OBJECT_NAME":"STARLINK-35986","OBJECT_ID":"2025-281F","EPOCH":"2025-12-13T06:38:28.442112","MEAN_MOTION":15.90153253,"ECCENTRICITY":0.00023091,"INCLINATION":43.0005,"RA_OF_ASC_NODE":119.0322,"ARG_OF_PERICENTER":242.4337,"MEAN_ANOMALY":117.6303,"EPHEMERIS_TYPE":0,"CLASSIFICATION_TYPE":"U","NORAD_CAT_ID":66853,"ELEMENT_SET_NO":999,"REV_AT_EPOCH":288,"BSTAR":-0.00017869687,"MEAN_MOTION_DOT":-0.00056272,"MEAN_MOTION_DDOT":0},{"OBJECT_NAME":"STARLINK-36087","OBJECT_ID":"2025-281G","EPOCH":"2025-12-13T02:06:23.867136","MEAN_MOTION":15.91020373,"ECCENTRICITY":0.00048587,"INCLINATION":43.0008,"RA_OF_ASC_NODE":120.1967,"ARG_OF_PERICENTER":19.6571,"MEAN_ANOMALY":340.449,"EPHEMERIS_TYPE":0,"CLASSIFICATION_TYPE":"U","NORAD_CAT_ID":66854,"ELEMENT_SET_NO":999,"REV_AT_EPOCH":285,"BSTAR":0.0017449449,"MEAN_MOTION_DOT":0.00568609,"MEAN_MOTION_DDOT":0.00013290224},{"OBJECT_NAME":"STARLINK-36090","OBJECT_ID":"2025-281H","EPOCH":"2025-12-13T02:05:43.692000","MEAN_MOTION":15.90803244,"ECCENTRICITY":0.00027108,"INCLINATION":43.001,"RA_OF_ASC_NODE":120.1928,"ARG_OF_PERICENTER":339.8794,"MEAN_ANOMALY":20.1974,"EPHEMERIS_TYPE":0,"CLASSIFICATION_TYPE":"U","NORAD_CAT_ID":66855,"ELEMENT_SET_NO":999,"REV_AT_EPOCH":285,"BSTAR":0.00072619938,"MEAN_MOTION_DOT":0.00241105,"MEAN_MOTION_DDOT":0},{"OBJECT_NAME":"STARLINK-36072","OBJECT_ID":"2025-281J","EPOCH":"2025-12-13T06:36:20.097504","MEAN_MOTION":15.90815408,"ECCENTRICITY":0.00055338,"INCLINATION":43.0005,"RA_OF_ASC_NODE":119.0194,"ARG_OF_PERICENTER":248.4415,"MEAN_ANOMALY":111.587,"EPHEMERIS_TYPE":0,"CLASSIFICATION_TYPE":"U","NORAD_CAT_ID":66856,"ELEMENT_SET_NO":999,"REV_AT_EPOCH":288,"BSTAR":0.0021297106,"MEAN_MOTION_DOT":0.00686897,"MEAN_MOTION_DDOT":0.00019391404},{"OBJECT_NAME":"STARLINK-36083","OBJECT_ID":"2025-281K","EPOCH":"2025-12-13T02:04:24.085632","MEAN_MOTION":15.91008292,"ECCENTRICITY":0.00036341,"INCLINATION":43.0006,"RA_OF_ASC_NODE":120.1852,"ARG_OF_PERICENTER":338.5354,"MEAN_ANOMALY":21.5368,"EPHEMERIS_TYPE":0,"CLASSIFICATION_TYPE":"U","NORAD_CAT_ID":66857,"ELEMENT_SET_NO":999,"REV_AT_EPOCH":285,"BSTAR":0.0015828787,"MEAN_MOTION_DOT":0.00515146,"MEAN_MOTION_DDOT":0.00010953086},{"OBJECT_NAME":"STARLINK-35118","OBJECT_ID":"2025-281L","EPOCH":"2025-12-13T06:35:03.524640","MEAN_MOTION":15.90299033,"ECCENTRICITY":0.00033218,"INCLINATION":43.0003,"RA_OF_ASC_NODE":119.0123,"ARG_OF_PERICENTER":249.825,"MEAN_ANOMALY":110.2268,"EPHEMERIS_TYPE":0,"CLASSIFICATION_TYPE":"U","NORAD_CAT_ID":66858,"ELEMENT_SET_NO":999,"REV_AT_EPOCH":288,"BSTAR":0.00066906156,"MEAN_MOTION_DOT":0.00215829,"MEAN_MOTION_DDOT":0},{"OBJECT_NAME":"STARLINK-35646","OBJECT_ID":"2025-281M","EPOCH":"2025-12-13T02:03:04.878432","MEAN_MOTION":15.91285504,"ECCENTRICITY":0.0004934,"INCLINATION":43.0008,"RA_OF_ASC_NODE":120.1773,"ARG_OF_PERICENTER":14.9078,"MEAN_ANOMALY":345.1942,"EPHEMERIS_TYPE":0,"CLASSIFICATION_TYPE":"U","NORAD_CAT_ID":66859,"ELEMENT_SET_NO":999,"REV_AT_EPOCH":285,"BSTAR":0.0018776805,"MEAN_MOTION_DOT":0.00620337,"MEAN_MOTION_DDOT":0.00015861515},{"OBJECT_NAME":"STARLINK-35987","OBJECT_ID":"2025-281N","EPOCH":"2025-12-13T06:30:40.289760","MEAN_MOTION":15.91059705,"ECCENTRICITY":0.0006143,"INCLINATION":43.0005,"RA_OF_ASC_NODE":118.9863,"ARG_OF_PERICENTER":246.9071,"MEAN_ANOMALY":113.1157,"EPHEMERIS_TYPE":0,"CLASSIFICATION_TYPE":"U","NORAD_CAT_ID":66860,"ELEMENT_SET_NO":999,"REV_AT_EPOCH":288,"BSTAR":0.0018956137,"MEAN_MOTION_DOT":0.00619398,"MEAN_MOTION_DDOT":0.00015767795},{"OBJECT_NAME":"STARLINK-35991","OBJECT_ID":"2025-281P","EPOCH":"2025-12-13T06:32:52.834272","MEAN_MOTION":15.90332018,"ECCENTRICITY":0.00033751,"INCLINATION":43.001,"RA_OF_ASC_NODE":118.9996,"ARG_OF_PERICENTER":246.4203,"MEAN_ANOMALY":113.6318,"EPHEMERIS_TYPE":0,"CLASSIFICATION_TYPE":"U","NORAD_CAT_ID":66861,"ELEMENT_SET_NO":999,"REV_AT_EPOCH":288,"BSTAR":0.00011259359,"MEAN_MOTION_DOT":0.00035142,"MEAN_MOTION_DDOT":0},{"OBJECT_NAME":"STARLINK-35974","OBJECT_ID":"2025-281Q","EPOCH":"2025-12-13T06:33:35.241120","MEAN_MOTION":15.91059325,"ECCENTRICITY":0.00067108,"INCLINATION":43.0005,"RA_OF_ASC_NODE":119.0033,"ARG_OF_PERICENTER":243.252,"MEAN_ANOMALY":116.7669,"EPHEMERIS_TYPE":0,"CLASSIFICATION_TYPE":"U","NORAD_CAT_ID":66862,"ELEMENT_SET_NO":999,"REV_AT_EPOCH":288,"BSTAR":0.0026077864,"MEAN_MOTION_DOT":0.00851629,"MEAN_MOTION_DDOT":0.00030457985},{"OBJECT_NAME":"STARLINK-36134","OBJECT_ID":"2025-281R","EPOCH":"2025-12-13T02:00:41.952960","MEAN_MOTION":15.91116607,"ECCENTRICITY":0.00030545,"INCLINATION":43.001,"RA_OF_ASC_NODE":120.1641,"ARG_OF_PERICENTER":350.4303,"MEAN_ANOMALY":9.6513,"EPHEMERIS_TYPE":0,"CLASSIFICATION_TYPE":"U","NORAD_CAT_ID":66863,"ELEMENT_SET_NO":999,"REV_AT_EPOCH":285,"BSTAR":0.00066109082,"MEAN_MOTION_DOT":0.00215041,"MEAN_MOTION_DDOT":2.5211091e-5},{"OBJECT_NAME":"STARLINK-36070","OBJECT_ID":"2025-281S","EPOCH":"2025-12-13T06:31:20.574624","MEAN_MOTION":15.90380504,"ECCENTRICITY":0.00029883,"INCLINATION":43.001,"RA_OF_ASC_NODE":118.9904,"ARG_OF_PERICENTER":246.7998,"MEAN_ANOMALY":113.2562,"EPHEMERIS_TYPE":0,"CLASSIFICATION_TYPE":"U","NORAD_CAT_ID":66864,"ELEMENT_SET_NO":999,"REV_AT_EPOCH":288,"BSTAR":5.7561017e-5,"MEAN_MOTION_DOT":0.00017671,"MEAN_MOTION_DDOT":0},{"OBJECT_NAME":"STARLINK-36117","OBJECT_ID":"2025-281T","EPOCH":"2025-12-13T06:29:56.977440","MEAN_MOTION":15.91140315,"ECCENTRICITY":0.00062363,"INCLINATION":43.0007,"RA_OF_ASC_NODE":118.9831,"ARG_OF_PERICENTER":247.6418,"MEAN_ANOMALY":112.3796,"EPHEMERIS_TYPE":0,"CLASSIFICATION_TYPE":"U","NORAD_CAT_ID":66865,"ELEMENT_SET_NO":999,"REV_AT_EPOCH":288,"BSTAR":0.0022425931,"MEAN_MOTION_DOT":0.00735683,"MEAN_MOTION_DDOT":0.00022427456}]
