STARLINK-36105          
1 66850U 25281C   25347.08966661  .00692488  19716-3  21491-2 0  9999
2 66850  43.0008 120.2126 0004187 348.4545  11.6233 15.90809005  2857
STARLINK-36094          
1 66851U 25281D   25347.27768840  .00207646  00000+0  65544-3 0  9998
2 66851  43.0005 119.0405 0003109 249.6994 110.3547 15.89964839  2887
STARLINK-35992          
1 66852U 25281E   25347.08886314  .00596999  14609-3  18499-2 0  9997
2 66852  43.0008 120.2059 0003984 346.7655  13.3115 15.90839104  2852
STARLINK-35986          
1 66853U 25281F   25347.27671808 -.00056272  00000+0 -17870-3 0  9995
2 66853  43.0005 119.0322 0002309 242.4337 117.6303 15.90153253  2882
STARLINK-36087          
1 66854U 25281G   25347.08777624  .00568609  13290-3  17449-2 0  9998
2 66854  43.0008 120.1967 0004858  19.6571 340.4490 15.91020373  2856
STARLINK-36090          
1 66855U 25281H   25347.08731125  .00241105  00000+0  72620-3 0  9998
2 66855  43.0010 120.1928 0002710 339.8794  20.1974 15.90803244  2850
STARLINK-36072          
1 66856U 25281J   25347.27523261  .00686897  19391-3  21297-2 0  9991
2 66856  43.0005 119.0194 0005533 248.4415 111.5870 15.90815408  2886
STARLINK-36083          
1 66857U 25281K   25347.08638988  .00515146  10953-3  15829-2 0  9991
2 66857  43.0006 120.1852 0003634 338.5354  21.5368 15.91008292  2850
STARLINK-35118          
1 66858U 25281L   25347.27434635  .00215829  00000+0  66906-3 0  9992
2 66858  43.0003 119.0123 0003321 249.8250 110.2268 15.90299033  2880
STARLINK-35646          
1 66859U 25281M   25347.08547313  .00620337  15862-3  18777-2 0  9992
2 66859  43.0008 120.1773 0004934  14.9078 345.1942 15.91285504  2854
STARLINK-35987          
1 66860U 25281N   25347.27129965  .00619398  15768-3  18956-2 0  9993
2 66860  43.0005 118.9863 0006143 246.9071 113.1157 15.91059705  2888
STARLINK-35991          
1 66861U 25281P   25347.27283373  .00035142  00000+0  11259-3 0  9996
2 66861  43.0010 118.9996 0003375 246.4203 113.6318 15.90332018  2882
STARLINK-35974          
1 66862U 25281Q   25347.27332455  .00851629  30458-3  26078-2 0  9997
2 66862  43.0005 119.0033 0006710 243.2520 116.7669 15.91059325  2885
STARLINK-36134          
1 66863U 25281R   25347.08381890  .00215041  25211-4  66109-3 0  9998
2 66863  43.0010 120.1641 0003054 350.4303   9.6513 15.91116607  2850
STARLINK-36070          
1 66864U 25281S   25347.27176591  .00017671  00000+0  57561-4 0  9996
2 66864  43.0010 118.9904 0002988 246.7998 113.2562 15.90380504  2887
STARLINK-36117          
1 66865U 25281T   25347.27079835  .00735683  22427-3  22426-2 0  9991
2 66865  43.0007 118.9831 0006236 247.6418 112.3796 15.91140315  2884
